NORAD_CAT_ID,OBJECT_NAME,OBJECT_TYPE,EPOCH,MEAN_MOTION,ECCENTRICITY,INCLINATION,RA_OF_ASC_NODE,ARG_OF_PERICENTER,MEAN_ANOMALY,BSTAR,MEAN_MOTION_DOT,MEAN_MOTION_DDOT,TLE_LINE0,TLE_LINE1,TLE_LINE2,SEMIMAJOR_AXIS,PERIOD,APOGEE,PERIGEE,DECAYED
55425.0,STARLINK-5615,PAYLOAD,2023-05-26 22:00:01,15.02844679,0.0003064,69.9987,130.7356,267.2297,205.8619,-0.075238,-0.00932483,0.0,0 STARLINK-5615,1 55425U 23014AL  23146.91668981 -.00932483  00000-0 -75238-1 0  9992,2 55425  69.9987 130.7356 0003064 267.2297 205.8619 15.02844679 18178,6936.267,95.818,560.257,556.006,0.0
55425.0,STARLINK-5615,PAYLOAD,2023-05-27 22:00:00,15.0089117,0.0003078,69.9987,128.2002,267.3893,210.7368,-0.079784,-0.0094926,0.0,0 STARLINK-5615,1 55425U 23014AL  23147.91667824 -.00949260  00000-0 -79784-1 0  9999,2 55425  69.9987 128.2002 0003078 267.3893 210.7368 15.00891170  1305,6942.284,95.943,566.286,562.012,0.0
55425.0,STARLINK-5615,PAYLOAD,2023-05-28 06:00:00,15.00179445,0.0003125,69.9985,127.3568,272.8462,205.4393,-0.073341,-0.00853003,0.0,0 STARLINK-5615,1 55425U 23014AL  23148.25001157 -.00853003  00000-0 -73341-1 0  9990,2 55425  69.9985 127.3568 0003125 272.8462 205.4393 15.00179445 18374,6944.48,95.989,568.515,564.174,0.0
55425.0,STARLINK-5615,PAYLOAD,2023-05-28 14:00:01,14.99422245,0.0003067,69.9984,126.5142,271.0019,206.6406,-0.017613,-0.00209957,0.0,0 STARLINK-5615,1 55425U 23014AL  23148.58334491 -.00209957  00000-0 -17613-1 0  9999,2 55425  69.9984 126.5142 0003067 271.0019 206.6406 14.99422245 18426,6946.817,96.037,570.813,566.552,0.0
55425.0,STARLINK-5615,PAYLOAD,2023-05-28 22:00:00,14.99292809,0.000299,69.999,125.6723,266.2497,210.0876,0.0016723,0.00020424,0.0,0 STARLINK-5615,1 55425U 23014AL  23148.91667824  .00020424  00000-0  16723-2 0  9995,2 55425  69.9990 125.6723 0002990 266.2497 210.0876 14.99292809 18474,6947.217,96.045,571.159,567.005,0.0
55425.0,STARLINK-5615,PAYLOAD,2023-05-29 14:00:01,14.99320087,0.0002877,69.9992,123.9889,271.7694,201.86,-0.0036549,-0.00044555,0.0,0 STARLINK-5615,1 55425U 23014AL  23149.58334491 -.00044555  00000-0 -36549-2 0  9991,2 55425  69.9992 123.9889 0002877 271.7694 201.8600 14.99320087 18578,6947.133,96.044,570.997,566.999,0.0
55425.0,STARLINK-5615,PAYLOAD,2023-05-29 22:00:00,14.99301444,0.0002892,69.9999,123.1471,266.7617,205.5129,0.001645,0.00020092,0.0,0 STARLINK-5615,1 55425U 23014AL  23149.91667824  .00020092  00000-0  16450-2 0  9994,2 55425  69.9999 123.1471 0002892 266.7617 205.5129 14.99301444  1306,6947.19,96.045,571.065,567.046,0.0
55425.0,STARLINK-5615,PAYLOAD,2023-05-30 06:00:00,14.99300272,0.0002922,69.9997,122.3053,273.3766,197.5598,-0.0005961,-7.38e-05,0.0,0 STARLINK-5615,1 55425U 23014AL  23150.25001157 -.00007380  00000-0 -59610-3 0  9997,2 55425  69.9997 122.3053 0002922 273.3766 197.5598 14.99300272 18670,6947.194,96.045,571.089,567.029,0.0
55425.0,STARLINK-5615,PAYLOAD,2023-05-30 14:00:01,14.99312311,0.0002881,69.9994,121.4635,271.5877,197.9915,-0.0035113,-0.0004281,0.0,0 STARLINK-5615,1 55425U 23014AL  23150.58334491 -.00042810  00000-0 -35113-2 0  9991,2 55425  69.9994 121.4635 0002881 271.5877 197.9915 14.99312311  1306,6947.157,96.044,571.023,567.02,0.0
55425.0,STARLINK-5615,PAYLOAD,2023-05-31 00:00:02,14.9932131,0.0002936,69.9998,120.4112,267.4509,290.4846,-0.0023661,-0.00028942,0.0,0 STARLINK-5615,1 55425U 23014AL  23151.00002315 -.00028942  00000-0 -23661-2 0  9991,2 55425  69.9998 120.4112 0002936 267.4509 290.4846 14.99321310  1307,6947.129,96.043,571.034,566.954,0.0
55425.0,STARLINK-5615,PAYLOAD,2023-05-31 06:00:02,14.99295828,0.0002921,69.9997,119.7799,273.3953,193.5406,0.00019518,2.295e-05,0.0,0 STARLINK-5615,1 55425U 23014AL  23151.25002315  .00002295  00000-0  19518-3 0  9996,2 55425  69.9997 119.7799 0002921 273.3953 193.5406 14.99295828 18825,6947.208,96.045,571.102,567.043,0.0
55425.0,STARLINK-5615,PAYLOAD,2023-05-31 14:00:01,14.99311474,0.0002882,69.9994,118.9381,271.5719,193.947,-0.0030701,-0.0003747,0.0,0 STARLINK-5615,1 55425U 23014AL  23151.58334491 -.00037470  00000-0 -30701-2 0  9996,2 55425  69.9994 118.9381 0002882 271.5719 193.9470 14.99311474  1302,6947.159,96.044,571.027,567.022,0.0
55425.0,STARLINK-5615,PAYLOAD,2023-05-31 22:00:00,14.99303544,0.0002903,69.9998,118.0963,266.3816,197.7747,0.0010977,0.00013364,0.0,0 STARLINK-5615,1 55425U 23014AL  23151.91667824  .00013364  00000-0  10977-2 0  9999,2 55425  69.9998 118.0963 0002903 266.3816 197.7747 14.99303544  1305,6947.184,96.045,571.066,567.032,0.0
55425.0,STARLINK-5615,PAYLOAD,2023-06-01 07:08:40,14.9930237,0.0002737,69.999,117.1348,267.555,92.5296,1.0421e-05,3.4e-07,0.0,0 STARLINK-5615,1 55425U 23014AL  23152.29768802  .00000034  00000-0  10421-4 0  9995,2 55425  69.9990 117.1348 0002737 267.5550  92.5296 14.99302370 19910,6947.188,96.045,570.954,567.151,0.0
55425.0,STARLINK-5615,PAYLOAD,2023-06-01 21:33:19,14.99298998,0.0002783,69.999,115.6192,269.5656,90.5185,8.9594e-07,-8.3e-07,0.0,0 STARLINK-5615,1 55425U 23014AL  23152.89814160 -.00000083  00000-0  89594-6 0  9994,2 55425  69.9990 115.6192 0002783 269.5656  90.5185 14.99298998 20007,6947.198,96.045,570.996,567.13,0.0
55425.0,STARLINK-5615,PAYLOAD,2023-06-02 07:09:45,14.99300497,0.0002783,69.999,114.6077,267.916,92.1681,1.4947e-05,8.9e-07,0.0,0 STARLINK-5615,1 55425U 23014AL  23153.29844084  .00000089  00000-0  14947-4 0  9990,2 55425  69.9990 114.6077 0002783 267.9160  92.1681 14.99300497 19128,6947.193,96.045,570.992,567.125,0.0
55425.0,STARLINK-5615,PAYLOAD,2023-06-02 21:34:23,14.99305124,0.000279,69.9989,113.0912,268.0516,92.0324,3.6431e-05,3.52e-06,0.0,0 STARLINK-5615,1 55425U 23014AL  23153.89888764  .00000352  00000-0  36431-4 0  9994,2 55425  69.9989 113.0912 0002790 268.0516  92.0324 14.99305124 20152,6947.179,96.044,570.982,567.106,0.0
55425.0,STARLINK-5615,PAYLOAD,2023-06-03 03:58:41,14.9930659,0.0002799,69.9989,112.4174,268.1697,91.9142,4.9845e-05,5.16e-06,0.0,0 STARLINK-5615,1 55425U 23014AL  23154.16575262  .00000516  00000-0  49845-4 0  9996,2 55425  69.9989 112.4174 0002799 268.1697  91.9142 14.99306590 19258,6947.175,96.044,570.984,567.095,0.0
55425.0,STARLINK-5615,PAYLOAD,2023-06-03 07:10:49,14.99306686,0.0002801,69.9989,112.0805,268.3156,91.7683,4.9399e-05,5.11e-06,0.0,0 STARLINK-5615,1 55425U 23014AL  23154.29918567  .00000511  00000-0  49399-4 0  9998,2 55425  69.9989 112.0805 0002801 268.3156  91.7683 14.99306686 20213,6947.174,96.044,570.985,567.093,0.0
55425.0,STARLINK-5615,PAYLOAD,2023-06-03 21:35:29,14.99297112,0.000279,69.999,110.5643,268.1934,91.8906,-4.1627e-05,-6.03e-06,0.0,0 STARLINK-5615,1 55425U 23014AL  23154.89964476 -.00000603  00000-0 -41627-4 0  9994,2 55425  69.9990 110.5643 0002790 268.1934  91.8906 14.99297112 20309,6947.204,96.045,571.007,567.131,0.0
55425.0,STARLINK-5615,PAYLOAD,2023-06-04 02:23:42,14.99296319,0.0002797,69.999,110.0589,268.2041,91.8799,-4.7692e-05,-6.77e-06,0.0,0 STARLINK-5615,1 55425U 23014AL  23155.09979611 -.00000677  00000-0 -47692-4 0  9993,2 55425  69.9990 110.0589 0002797 268.2041  91.8799 14.99296319 19395,6947.206,96.045,571.014,567.128,0.0
55425.0,STARLINK-5615,PAYLOAD,2023-06-04 07:11:55,14.99296847,0.000283,69.999,109.5537,268.5909,91.4926,-5.2002e-05,-7.3e-06,0.0,0 STARLINK-5615,1 55425U 23014AL  23155.29994662 -.00000730  00000-0 -52002-4 0  9999,2 55425  69.9990 109.5537 0002830 268.5909  91.4926 14.99296847 20368,6947.205,96.045,571.036,567.104,0.0
55425.0,STARLINK-5615,PAYLOAD,2023-06-04 21:36:34,14.99302522,0.0002822,69.9991,108.0375,268.7359,91.3477,-4.2522e-05,-6.14e-06,0.0,0 STARLINK-5615,1 55425U 23014AL  23155.90039410 -.00000614  00000-0 -42522-4 0  9995,2 55425  69.9991 108.0375 0002822 268.7359  91.3477 14.99302522 20453,6947.187,96.045,571.013,567.092,0.0
55425.0,STARLINK-5615,PAYLOAD,2023-06-05 04:00:51,14.99304981,0.0002783,69.9991,107.3638,268.2532,91.8309,-9.4182e-06,-2.09e-06,0.0,0 STARLINK-5615,1 55425U 23014AL  23156.16725833 -.00000209  00000-0 -94182-5 0  9995,2 55425  69.9991 107.3638 0002783 268.2532  91.8309 14.99304981 19550,6947.179,96.045,570.978,567.111,0.0
55425.0,STARLINK-5615,PAYLOAD,2023-06-05 13:37:17,14.99303386,0.0002743,69.9993,106.3531,268.7673,91.3173,7.3371e-06,-4e-08,0.0,0 STARLINK-5615,1 55425U 23014AL  23156.56755857 -.00000004  00000-0  73371-5 0  9997,2 55425  69.9993 106.3531 0002743 268.7673  91.3173 14.99303386 20554,6947.184,96.045,570.955,567.144,0.0
55425.0,STARLINK-5615,PAYLOAD,2023-06-05 20:01:34,14.99301927,0.0002856,69.9989,105.6786,271.4283,88.655,8.4003e-05,9.34e-06,0.0,0 STARLINK-5615,1 55425U 23014AL  23156.83442386  .00000934  00000-0  84003-4 0  9991,2 55425  69.9989 105.6786 0002856 271.4283  88.6550 14.99301927 20597,6947.189,96.045,571.038,567.07,0.0
55425.0,STARLINK-5615,PAYLOAD,2023-06-06 05:37:59,14.99306427,0.0002806,69.9991,104.668,270.9527,89.1311,0.00012231,1.403e-05,0.0,0 STARLINK-5615,1 55425U 23014AL  23157.23471973  .00001403  00000-0  12231-3 0  9995,2 55425  69.9991 104.6680 0002806 270.9527  89.1311 14.99306427 19715,6947.175,96.044,570.989,567.091,0.0
55425.0,STARLINK-5615,PAYLOAD,2023-06-06 23:14:49,14.99285498,0.000277,69.9992,102.8147,270.6774,89.4068,-0.00021115,-2.675e-05,0.0,0 STARLINK-5615,1 55425U 23014AL  23157.96862833 -.00002675  00000-0 -21115-3 0  9999,2 55425  69.9992 102.8147 0002770 270.6774  89.4068 14.99285498 19823,6947.24,96.046,571.029,567.18,0.0
55425.0,STARLINK-5615,PAYLOAD,2023-06-07 05:39:07,14.99281816,0.0002553,70.0002,102.142,268.8689,91.2178,-0.0001884,-2.397e-05,0.0,0 STARLINK-5615,1 55425U 23014AL  23158.23549985 -.00002397  00000-0 -18840-3 0  9992,2 55425  70.0002 102.1420 0002553 268.8689  91.2178 14.99281816 20801,6947.251,96.046,570.89,567.342,0.0
55425.0,STARLINK-5615,PAYLOAD,2023-06-07 21:39:49,14.99296499,0.0002564,70.0006,100.4581,272.4344,87.6521,-0.00013891,-1.793e-05,0.0,0 STARLINK-5615,1 55425U 23014AL  23158.90266196 -.00001793  00000-0 -13891-3 0  9996,2 55425  70.0006 100.4581 0002564 272.4344  87.6521 14.99296499 20900,6947.206,96.045,570.852,567.289,0.0
